[{"OBJECT_NAME":"IUS R/B(2)","OBJECT_ID":"1989-046D","EPOCH":"2026-03-06T00:11:05.053632","MEAN_MOTION":1.01297835,"ECCENTRICITY":0.00447937,"INCLINATION":12.257,"RA_OF_ASC_NODE":338.9963,"ARG_OF_PERICENTER":10.6314,"MEAN_ANOMALY":349.4648,"EPHEMERIS_TYPE":0,"CLASSIFICATION_TYPE":"U","NORAD_CAT_ID":20069,"ELEMENT_SET_NO":999,"REV_AT_EPOCH":2519,"BSTAR":0,"MEAN_MOTION_DOT":6.7e-7,"MEAN_MOTION_DDOT":0},{"OBJECT_NAME":"GORIZONT 18","OBJECT_ID":"1989-052A","EPOCH":"2026-03-07T09:21:51.764544","MEAN_MOTION":0.99397795,"ECCENTRICITY":0.00372932,"INCLINATION":12.4965,"RA_OF_ASC_NODE":335.1417,"ARG_OF_PERICENTER":344.923,"MEAN_ANOMALY":79.4608,"EPHEMERIS_TYPE":0,"CLASSIFICATION_TYPE":"U","NORAD_CAT_ID":20107,"ELEMENT_SET_NO":999,"REV_AT_EPOCH":13340,"BSTAR":0,"MEAN_MOTION_DOT":-1.02e-6,"MEAN_MOTION_DDOT":0},{"OBJECT_NAME":"TVSAT 2","OBJECT_ID":"1989-062A","EPOCH":"2026-03-07T00:40:38.646912","MEAN_MOTION":0.99854902,"ECCENTRICITY":0.00028712,"INCLINATION":14.6954,"RA_OF_ASC_NODE":356.5633,"ARG_OF_PERICENTER":227.7695,"MEAN_ANOMALY":315.6887,"EPHEMERIS_TYPE":0,"CLASSIFICATION_TYPE":"U","NORAD_CAT_ID":20168,"ELEMENT_SET_NO":999,"REV_AT_EPOCH":13348,"BSTAR":0,"MEAN_MOTION_DOT":-6.7e-7,"MEAN_MOTION_DDOT":0},{"OBJECT_NAME":"HIPPARCOS","OBJECT_ID":"1989-062B","EPOCH":"2026-03-07T09:41:10.591584","MEAN_MOTION":2.26414023,"ECCENTRICITY":0.71892246,"INCLINATION":7.399,"RA_OF_ASC_NODE":357.9474,"ARG_OF_PERICENTER":266.8874,"MEAN_ANOMALY":16.6209,"EPHEMERIS_TYPE":0,"CLASSIFICATION_TYPE":"U","NORAD_CAT_ID":20169,"ELEMENT_SET_NO":999,"REV_AT_EPOCH":26705,"BSTAR":0.00021914827,"MEAN_MOTION_DOT":-3.4e-7,"MEAN_MOTION_DDOT":0},{"OBJECT_NAME":"TITAN 34D TRANSTAGE R/B","OBJECT_ID":"1989-069D","EPOCH":"2026-03-06T16:18:06.538176","MEAN_MOTION":1.01246682,"ECCENTRICITY":0.0071054,"INCLINATION":11.1881,"RA_OF_ASC_NODE":328.2875,"ARG_OF_PERICENTER":344.6488,"MEAN_ANOMALY":15.1177,"EPHEMERIS_TYPE":0,"CLASSIFICATION_TYPE":"U","NORAD_CAT_ID":20205,"ELEMENT_SET_NO":999,"REV_AT_EPOCH":2596,"BSTAR":0,"MEAN_MOTION_DOT":-2.78e-6,"MEAN_MOTION_DDOT":0},{"OBJECT_NAME":"FLTSATCOM 8 (USA 46)","OBJECT_ID":"1989-077A","EPOCH":"2026-03-06T16:15:58.710240","MEAN_MOTION":1.00261853,"ECCENTRICITY":0.00086144,"INCLINATION":12.4496,"RA_OF_ASC_NODE":351.7772,"ARG_OF_PERICENTER":335.2152,"MEAN_ANOMALY":206.8046,"EPHEMERIS_TYPE":0,"CLASSIFICATION_TYPE":"U","NORAD_CAT_ID":20253,"ELEMENT_SET_NO":999,"REV_AT_EPOCH":25953,"BSTAR":0,"MEAN_MOTION_DOT":-3.69e-6,"MEAN_MOTION_DDOT":0},{"OBJECT_NAME":"GORIZONT 19","OBJECT_ID":"1989-081A","EPOCH":"2026-03-06T16:08:51.891648","MEAN_MOTION":1.0021113,"ECCENTRICITY":0.00058376,"INCLINATION":12.1876,"RA_OF_ASC_NODE":334.1767,"ARG_OF_PERICENTER":283.6601,"MEAN_ANOMALY":249.0139,"EPHEMERIS_TYPE":0,"CLASSIFICATION_TYPE":"U","NORAD_CAT_ID":20263,"ELEMENT_SET_NO":999,"REV_AT_EPOCH":4631,"BSTAR":0,"MEAN_MOTION_DOT":-3.11e-6,"MEAN_MOTION_DDOT":0},{"OBJECT_NAME":"SL-12 R/B(2)","OBJECT_ID":"1989-081D","EPOCH":"2026-03-06T19:24:48.104640","MEAN_MOTION":1.00620096,"ECCENTRICITY":0.00257062,"INCLINATION":11.9939,"RA_OF_ASC_NODE":333.5654,"ARG_OF_PERICENTER":121.7698,"MEAN_ANOMALY":67.7499,"EPHEMERIS_TYPE":0,"CLASSIFICATION_TYPE":"U","NORAD_CAT_ID":20266,"ELEMENT_SET_NO":999,"REV_AT_EPOCH":11832,"BSTAR":0,"MEAN_MOTION_DOT":-1.1e-6,"MEAN_MOTION_DDOT":0},{"OBJECT_NAME":"HIMAWARI-4 AKM","OBJECT_ID":"1989-070C","EPOCH":"2026-03-06T14:35:08.379168","MEAN_MOTION":0.98763919,"ECCENTRICITY":0.02412706,"INCLINATION":12.6905,"RA_OF_ASC_NODE":337.8338,"ARG_OF_PERICENTER":60.3629,"MEAN_ANOMALY":114.698,"EPHEMERIS_TYPE":0,"CLASSIFICATION_TYPE":"U","NORAD_CAT_ID":20317,"ELEMENT_SET_NO":999,"REV_AT_EPOCH":4564,"BSTAR":0,"MEAN_MOTION_DOT":-3.77e-6,"MEAN_MOTION_DDOT":0},{"OBJECT_NAME":"COSMOS 2050","OBJECT_ID":"1989-091A","EPOCH":"2026-03-07T08:32:24.604512","MEAN_MOTION":2.0039798,"ECCENTRICITY":0.59808644,"INCLINATION":65.3321,"RA_OF_ASC_NODE":91.6624,"ARG_OF_PERICENTER":164.9058,"MEAN_ANOMALY":226.6201,"EPHEMERIS_TYPE":0,"CLASSIFICATION_TYPE":"U","NORAD_CAT_ID":20330,"ELEMENT_SET_NO":999,"REV_AT_EPOCH":26576,"BSTAR":0,"MEAN_MOTION_DOT":-2.85e-6,"MEAN_MOTION_DDOT":0},{"OBJECT_NAME":"USA 48","OBJECT_ID":"1989-090B","EPOCH":"2026-03-07T07:46:38.791776","MEAN_MOTION":1.00743373,"ECCENTRICITY":0.02840961,"INCLINATION":16.964,"RA_OF_ASC_NODE":341.7595,"ARG_OF_PERICENTER":111.9075,"MEAN_ANOMALY":78.9715,"EPHEMERIS_TYPE":0,"CLASSIFICATION_TYPE":"U","NORAD_CAT_ID":20355,"ELEMENT_SET_NO":999,"REV_AT_EPOCH":673,"BSTAR":0,"MEAN_MOTION_DOT":-2.09e-6,"MEAN_MOTION_DDOT":0},{"OBJECT_NAME":"IUS R/B(2)","OBJECT_ID":"1989-090D","EPOCH":"2026-03-05T20:31:07.178016","MEAN_MOTION":0.99517333,"ECCENTRICITY":0.03336196,"INCLINATION":17.3326,"RA_OF_ASC_NODE":343.6439,"ARG_OF_PERICENTER":99.2823,"MEAN_ANOMALY":264.4865,"EPHEMERIS_TYPE":0,"CLASSIFICATION_TYPE":"U","NORAD_CAT_ID":20357,"ELEMENT_SET_NO":999,"REV_AT_EPOCH":2433,"BSTAR":0,"MEAN_MOTION_DOT":-3.6e-7,"MEAN_MOTION_DDOT":0},{"OBJECT_NAME":"RADUGA 24","OBJECT_ID":"1989-098A","EPOCH":"2026-03-06T18:00:53.778816","MEAN_MOTION":1.00319614,"ECCENTRICITY":0.00036039,"INCLINATION":12.615,"RA_OF_ASC_NODE":334.5163,"ARG_OF_PERICENTER":297.8407,"MEAN_ANOMALY":258.2284,"EPHEMERIS_TYPE":0,"CLASSIFICATION_TYPE":"U","NORAD_CAT_ID":20367,"ELEMENT_SET_NO":999,"REV_AT_EPOCH":13194,"BSTAR":0,"MEAN_MOTION_DOT":-2.99e-6,"MEAN_MOTION_DDOT":0},{"OBJECT_NAME":"COSMOS 2054","OBJECT_ID":"1989-101A","EPOCH":"2026-03-07T10:13:38.593632","MEAN_MOTION":1.00240029,"ECCENTRICITY":0.00018988,"INCLINATION":12.3463,"RA_OF_ASC_NODE":334.9472,"ARG_OF_PERICENTER":278.7161,"MEAN_ANOMALY":252.323,"EPHEMERIS_TYPE":0,"CLASSIFICATION_TYPE":"U","NORAD_CAT_ID":20391,"ELEMENT_SET_NO":999,"REV_AT_EPOCH":13284,"BSTAR":0,"MEAN_MOTION_DOT":6.7e-7,"MEAN_MOTION_DDOT":0},{"OBJECT_NAME":"LEASAT 5","OBJECT_ID":"1990-002B","EPOCH":"2026-03-06T17:42:38.778048","MEAN_MOTION":0.99593326,"ECCENTRICITY":0.0003903,"INCLINATION":11.1131,"RA_OF_ASC_NODE":353.2582,"ARG_OF_PERICENTER":31.1006,"MEAN_ANOMALY":155.237,"EPHEMERIS_TYPE":0,"CLASSIFICATION_TYPE":"U","NORAD_CAT_ID":20410,"ELEMENT_SET_NO":999,"REV_AT_EPOCH":11740,"BSTAR":0,"MEAN_MOTION_DOT":-2.61e-6,"MEAN_MOTION_DDOT":0},{"OBJECT_NAME":"SL-12 R/B(2)","OBJECT_ID":"1983-020D","EPOCH":"2026-03-08T05:35:38.228640","MEAN_MOTION":0.2472526,"ECCENTRICITY":0.66777246,"INCLINATION":77.5361,"RA_OF_ASC_NODE":59.0833,"ARG_OF_PERICENTER":49.4608,"MEAN_ANOMALY":0.2172,"EPHEMERIS_TYPE":0,"CLASSIFICATION_TYPE":"U","NORAD_CAT_ID":20413,"ELEMENT_SET_NO":999,"REV_AT_EPOCH":1110,"BSTAR":0,"MEAN_MOTION_DOT":-4.9e-7,"MEAN_MOTION_DDOT":0},{"OBJECT_NAME":"STTW-4","OBJECT_ID":"1990-011A","EPOCH":"2026-03-06T17:47:34.926144","MEAN_MOTION":1.00317612,"ECCENTRICITY":0.00016664,"INCLINATION":14.2074,"RA_OF_ASC_NODE":347.1903,"ARG_OF_PERICENTER":182.6923,"MEAN_ANOMALY":347.8654,"EPHEMERIS_TYPE":0,"CLASSIFICATION_TYPE":"U","NORAD_CAT_ID":20473,"ELEMENT_SET_NO":999,"REV_AT_EPOCH":13201,"BSTAR":0,"MEAN_MOTION_DOT":-2.26e-6,"MEAN_MOTION_DDOT":0},{"OBJECT_NAME":"RADUGA 25","OBJECT_ID":"1990-016A","EPOCH":"2026-03-07T03:49:38.811936","MEAN_MOTION":1.00215733,"ECCENTRICITY":0.0004566,"INCLINATION":12.4278,"RA_OF_ASC_NODE":335.3952,"ARG_OF_PERICENTER":229.0427,"MEAN_ANOMALY":329.4044,"EPHEMERIS_TYPE":0,"CLASSIFICATION_TYPE":"U","NORAD_CAT_ID":20499,"ELEMENT_SET_NO":999,"REV_AT_EPOCH":13188,"BSTAR":0,"MEAN_MOTION_DOT":-2.98e-6,"MEAN_MOTION_DDOT":0},{"OBJECT_NAME":"SL-12 R/B(2)","OBJECT_ID":"1990-016D","EPOCH":"2026-03-06T01:49:00.009120","MEAN_MOTION":1.00034466,"ECCENTRICITY":0.00406571,"INCLINATION":12.5683,"RA_OF_ASC_NODE":335.9028,"ARG_OF_PERICENTER":244.317,"MEAN_ANOMALY":297.2847,"EPHEMERIS_TYPE":0,"CLASSIFICATION_TYPE":"U","NORAD_CAT_ID":20502,"ELEMENT_SET_NO":999,"REV_AT_EPOCH":13173,"BSTAR":0,"MEAN_MOTION_DOT":-2.74e-6,"MEAN_MOTION_DDOT":0},{"OBJECT_NAME":"NEWSAT-1 (PALAPA B2R)","OBJECT_ID":"1990-034A","EPOCH":"2026-03-07T05:06:03.679776","MEAN_MOTION":0.9952929,"ECCENTRICITY":0.0006915,"INCLINATION":14.7166,"RA_OF_ASC_NODE":3.6821,"ARG_OF_PERICENTER":149.2628,"MEAN_ANOMALY":33.6011,"EPHEMERIS_TYPE":0,"CLASSIFICATION_TYPE":"U","NORAD_CAT_ID":20570,"ELEMENT_SET_NO":999,"REV_AT_EPOCH":4527,"BSTAR":0,"MEAN_MOTION_DOT":-2.65e-6,"MEAN_MOTION_DDOT":0},{"OBJECT_NAME":"INSAT-1D","OBJECT_ID":"1990-051A","EPOCH":"2026-03-07T10:40:51.632256","MEAN_MOTION":1.00282646,"ECCENTRICITY":0.00150344,"INCLINATION":14.6213,"RA_OF_ASC_NODE":354.7431,"ARG_OF_PERICENTER":196.4283,"MEAN_ANOMALY":214.3257,"EPHEMERIS_TYPE":0,"CLASSIFICATION_TYPE":"U","NORAD_CAT_ID":20643,"ELEMENT_SET_NO":999,"REV_AT_EPOCH":11773,"BSTAR":0,"MEAN_MOTION_DOT":-1.61e-6,"MEAN_MOTION_DDOT":0},{"OBJECT_NAME":"GORIZONT 20","OBJECT_ID":"1990-054A","EPOCH":"2026-03-06T19:22:48.296352","MEAN_MOTION":1.00309505,"ECCENTRICITY":0.00062414,"INCLINATION":12.7809,"RA_OF_ASC_NODE":336.7837,"ARG_OF_PERICENTER":246.6109,"MEAN_ANOMALY":292.3085,"EPHEMERIS_TYPE":0,"CLASSIFICATION_TYPE":"U","NORAD_CAT_ID":20659,"ELEMENT_SET_NO":999,"REV_AT_EPOCH":13066,"BSTAR":0,"MEAN_MOTION_DOT":1.4e-7,"MEAN_MOTION_DDOT":0},{"OBJECT_NAME":"SL-12 R/B(2)","OBJECT_ID":"1990-054D","EPOCH":"2026-03-05T19:45:02.132640","MEAN_MOTION":1.0051579,"ECCENTRICITY":0.00131891,"INCLINATION":12.6255,"RA_OF_ASC_NODE":336.2078,"ARG_OF_PERICENTER":98.6416,"MEAN_ANOMALY":261.5095,"EPHEMERIS_TYPE":0,"CLASSIFICATION_TYPE":"U","NORAD_CAT_ID":20662,"ELEMENT_SET_NO":999,"REV_AT_EPOCH":13075,"BSTAR":0,"MEAN_MOTION_DOT":-3.3e-7,"MEAN_MOTION_DDOT":0},{"OBJECT_NAME":"COSMOS 2085","OBJECT_ID":"1990-061A","EPOCH":"2026-03-07T15:27:09.172224","MEAN_MOTION":1.002612,"ECCENTRICITY":0.0013858,"INCLINATION":12.7675,"RA_OF_ASC_NODE":337.1997,"ARG_OF_PERICENTER":26.9546,"MEAN_ANOMALY":106.5965,"EPHEMERIS_TYPE":0,"CLASSIFICATION_TYPE":"U","NORAD_CAT_ID":20693,"ELEMENT_SET_NO":999,"REV_AT_EPOCH":13048,"BSTAR":0,"MEAN_MOTION_DOT":-9.0e-7,"MEAN_MOTION_DDOT":0}]
